{
  "type": "FeatureCollection",
  "features": [
    {
      "type": "Feature",
      "properties": {
        "norad_id": 30737,
        "name": "FENGYUN 1C DEB",
        "group": "fengyun-1c-debris",
        "lat": 59.028818681305324,
        "lon": -47.959621026789826,
        "alt_km": 821.9850426120101,
        "timestamp": "2025-12-10T04:57:29.896812+00:00",
        "meta_object_name": "FENGYUN 1C DEB",
        "meta_object_id": "1999-025ASX",
        "meta_epoch": "2025-12-09T10:46:44.256576",
        "meta_mean_motion": 14.18247734,
        "meta_eccentricity": 0.00239457,
        "meta_inclination": 98.5791,
        "meta_ra_of_asc_node": 325.8759,
        "meta_arg_of_pericenter": 140.6196,
        "meta_mean_anomaly": 14.59,
        "meta_ephemeris_type": 0,
        "meta_classification_type": "U",
        "meta_norad_cat_id": 30737,
        "meta_element_set_no": 999,
        "meta_rev_at_epoch": 96986,
        "meta_bstar": 0.00051848072,
        "meta_mean_motion_dot": 1.028e-05,
        "meta_mean_motion_ddot": 0,
        "tle_line1": "1 30737U 99025ASX 25343.44912334  .00001028  00000+0  51848-3 0  9991",
        "tle_line2": "2 30737  98.5791 325.8759 0023945 140.6196  14.5900 14.18247734969868"
      },
      "geometry": {
        "type": "Point",
        "coordinates": [
          -47.959621026789826,
          59.028818681305324
        ]
      }
    },
    {
      "type": "Feature",
      "properties": {
        "norad_id": 30739,
        "name": "FENGYUN 1C DEB",
        "group": "fengyun-1c-debris",
        "lat": -25.191349306963538,
        "lon": 147.27921261784655,
        "alt_km": 882.8262502016769,
        "timestamp": "2025-12-10T04:57:29.896822+00:00",
        "meta_object_name": "FENGYUN 1C DEB",
        "meta_object_id": "1999-025ASZ",
        "meta_epoch": "2025-12-08T21:44:59.505792",
        "meta_mean_motion": 14.14941303,
        "meta_eccentricity": 0.0100692,
        "meta_inclination": 98.6917,
        "meta_ra_of_asc_node": 330.1388,
        "meta_arg_of_pericenter": 328.1937,
        "meta_mean_anomaly": 98.205,
        "meta_ephemeris_type": 0,
        "meta_classification_type": "U",
        "meta_norad_cat_id": 30739,
        "meta_element_set_no": 999,
        "meta_rev_at_epoch": 96809,
        "meta_bstar": 0.0006939,
        "meta_mean_motion_dot": 1.365e-05,
        "meta_mean_motion_ddot": 0,
        "tle_line1": "1 30739U 99025ASZ 25342.90624428  .00001365  00000+0  69390-3 0  9992",
        "tle_line2": "2 30739  98.6917 330.1388 0100692 328.1937  98.2050 14.14941303968097"
      },
      "geometry": {
        "type": "Point",
        "coordinates": [
          147.27921261784655,
          -25.191349306963538
        ]
      }
    },
    {
      "type": "Feature",
      "properties": {
        "norad_id": 30740,
        "name": "FENGYUN 1C DEB",
        "group": "fengyun-1c-debris",
        "lat": -66.06523347865992,
        "lon": -110.93022257749459,
        "alt_km": 732.4852236623847,
        "timestamp": "2025-12-10T04:57:29.896832+00:00",
        "meta_object_name": "FENGYUN 1C DEB",
        "meta_object_id": "1999-025ATA",
        "meta_epoch": "2025-12-09T17:53:58.981056",
        "meta_mean_motion": 14.51817225,
        "meta_eccentricity": 0.0032217,
        "meta_inclination": 98.6885,
        "meta_ra_of_asc_node": 88.7454,
        "meta_arg_of_pericenter": 144.5945,
        "meta_mean_anomaly": 215.7396,
        "meta_ephemeris_type": 0,
        "meta_classification_type": "U",
        "meta_norad_cat_id": 30740,
        "meta_element_set_no": 999,
        "meta_rev_at_epoch": 97604,
        "meta_bstar": 0.0040756,
        "meta_mean_motion_dot": 0.000165,
        "meta_mean_motion_ddot": 0,
        "tle_line1": "1 30740U 99025ATA 25343.74582154  .00016500  00000+0  40756-2 0  9997",
        "tle_line2": "2 30740  98.6885  88.7454 0032217 144.5945 215.7396 14.51817225976048"
      },
      "geometry": {
        "type": "Point",
        "coordinates": [
          -110.93022257749459,
          -66.06523347865992
        ]
      }
    },
    {
      "type": "Feature",
      "properties": {
        "norad_id": 30741,
        "name": "FENGYUN 1C DEB",
        "group": "fengyun-1c-debris",
        "lat": 67.9706136069283,
        "lon": -164.26801825585153,
        "alt_km": 836.7747805331401,
        "timestamp": "2025-12-10T04:57:29.896842+00:00",
        "meta_object_name": "FENGYUN 1C DEB",
        "meta_object_id": "1999-025ATB",
        "meta_epoch": "2025-12-09T12:10:00.805728",
        "meta_mean_motion": 14.13231776,
        "meta_eccentricity": 0.00069691,
        "meta_inclination": 98.6799,
        "meta_ra_of_asc_node": 352.8724,
        "meta_arg_of_pericenter": 125.0205,
        "meta_mean_anomaly": 27.7538,
        "meta_ephemeris_type": 0,
        "meta_classification_type": "U",
        "meta_norad_cat_id": 30741,
        "meta_element_set_no": 999,
        "meta_rev_at_epoch": 96773,
        "meta_bstar": 0.00025461066,
        "meta_mean_motion_dot": 4.34e-06,
        "meta_mean_motion_ddot": 0,
        "tle_line1": "1 30741U 99025ATB 25343.50695377  .00000434  00000+0  25461-3 0  9990",
        "tle_line2": "2 30741  98.6799 352.8724 0006969 125.0205  27.7538 14.13231776967730"
      },
      "geometry": {
        "type": "Point",
        "coordinates": [
          -164.26801825585153,
          67.9706136069283
        ]
      }
    },
    {
      "type": "Feature",
      "properties": {
        "norad_id": 30742,
        "name": "FENGYUN 1C DEB",
        "group": "fengyun-1c-debris",
        "lat": 45.047672177208746,
        "lon": -142.32935749842707,
        "alt_km": 862.4726196371839,
        "timestamp": "2025-12-10T04:57:29.896853+00:00",
        "meta_object_name": "FENGYUN 1C DEB",
        "meta_object_id": "1999-025ATC",
        "meta_epoch": "2025-12-09T15:25:38.826336",
        "meta_mean_motion": 14.10345514,
        "meta_eccentricity": 0.0070877,
        "meta_inclination": 98.8684,
        "meta_ra_of_asc_node": 28.1173,
        "meta_arg_of_pericenter": 235.3877,
        "meta_mean_anomaly": 278.7001,
        "meta_ephemeris_type": 0,
        "meta_classification_type": "U",
        "meta_norad_cat_id": 30742,
        "meta_element_set_no": 999,
        "meta_rev_at_epoch": 95998,
        "meta_bstar": 0.0023608,
        "meta_mean_motion_dot": 4.248e-05,
        "meta_mean_motion_ddot": 0,
        "tle_line1": "1 30742U 99025ATC 25343.64281049  .00004248  00000+0  23608-2 0  9990",
        "tle_line2": "2 30742  98.8684  28.1173 0070877 235.3877 278.7001 14.10345514959980"
      },
      "geometry": {
        "type": "Point",
        "coordinates": [
          -142.32935749842707,
          45.047672177208746
        ]
      }
    },
    {
      "type": "Feature",
      "properties": {
        "norad_id": 30744,
        "name": "FENGYUN 1C DEB",
        "group": "fengyun-1c-debris",
        "lat": -79.05661991108443,
        "lon": -102.58561425603413,
        "alt_km": 601.2116572704954,
        "timestamp": "2025-12-10T04:57:29.896863+00:00",
        "meta_object_name": "FENGYUN 1C DEB",
        "meta_object_id": "1999-025ATE",
        "meta_epoch": "2025-12-08T21:42:39.585312",
        "meta_mean_motion": 14.88955563,
        "meta_eccentricity": 0.0010201,
        "meta_inclination": 98.7316,
        "meta_ra_of_asc_node": 128.6218,
        "meta_arg_of_pericenter": 283.7413,
        "meta_mean_anomaly": 204.6199,
        "meta_ephemeris_type": 0,
        "meta_classification_type": "U",
        "meta_norad_cat_id": 30744,
        "meta_element_set_no": 999,
        "meta_rev_at_epoch": 98031,
        "meta_bstar": 0.0060839,
        "meta_mean_motion_dot": 0.00057617,
        "meta_mean_motion_ddot": 0,
        "tle_line1": "1 30744U 99025ATE 25342.90462483  .00057617  00000+0  60839-2 0  9998",
        "tle_line2": "2 30744  98.7316 128.6218 0010201 283.7413 204.6199 14.88955563980310"
      },
      "geometry": {
        "type": "Point",
        "coordinates": [
          -102.58561425603413,
          -79.05661991108443
        ]
      }
    },
    {
      "type": "Feature",
      "properties": {
        "norad_id": 30746,
        "name": "FENGYUN 1C DEB",
        "group": "fengyun-1c-debris",
        "lat": -45.11021966498677,
        "lon": 173.92213586906095,
        "alt_km": 774.1736888423638,
        "timestamp": "2025-12-10T04:57:29.896876+00:00",
        "meta_object_name": "FENGYUN 1C DEB",
        "meta_object_id": "1999-025ATG",
        "meta_epoch": "2025-12-09T10:48:20.873376",
        "meta_mean_motion": 14.27504622,
        "meta_eccentricity": 0.00462834,
        "meta_inclination": 99.0575,
        "meta_ra_of_asc_node": 163.9243,
        "meta_arg_of_pericenter": 327.8333,
        "meta_mean_anomaly": 61.7782,
        "meta_ephemeris_type": 0,
        "meta_classification_type": "U",
        "meta_norad_cat_id": 30746,
        "meta_element_set_no": 999,
        "meta_rev_at_epoch": 97399,
        "meta_bstar": 0.00077954919,
        "meta_mean_motion_dot": 1.89e-05,
        "meta_mean_motion_ddot": 0,
        "tle_line1": "1 30746U 99025ATG 25343.45024159  .00001890  00000+0  77955-3 0  9995",
        "tle_line2": "2 30746  99.0575 163.9243 0046283 327.8333  61.7782 14.27504622973998"
      },
      "geometry": {
        "type": "Point",
        "coordinates": [
          173.92213586906095,
          -45.11021966498677
        ]
      }
    }
  ]
}